H1 CPF 01  gfz 2022 05 05 00  6251 terrasarx 
H2 0702601  6201 31698    2022 05 05 00 59 42 2022 05 10 00 00 42   120 1 1  0 0 0
H9
10 0 59707  59022.000000  0   -6023166.189  -2401107.520  -2336000.734
10 0 59707  59142.000000  0   -5752391.584  -2100610.902  -3163575.075
10 0 59707  59262.000000  0   -5375855.547  -1769175.280  -3935634.299
10 0 59707  59382.000000  0   -4899743.133  -1414405.261  -4638702.249
10 0 59707  59502.000000  0   -4332095.057  -1044175.585  -5260541.596
10 0 59707  59622.000000  0   -3682660.437   -666459.955  -5790360.521
10 0 59707  59742.000000  0   -2962719.657   -289163.055  -6218989.950
10 0 59707  59862.000000  0   -2184882.231     80040.812  -6539030.515
10 0 59707  59982.000000  0   -1362863.002    433858.885  -6744968.805
10 0 59707  60102.000000  0    -511241.474    765518.680  -6833261.798
10 0 59707  60222.000000  0     354791.709   1068894.061  -6802390.510
10 0 59707  60342.000000  0    1219697.999   1338614.443  -6652883.734
10 0 59707  60462.000000  0    2067863.906   1570157.953  -6387312.417
10 0 59707  60582.000000  0    2883877.608   1759926.860  -6010249.986
10 0 59707  60702.000000  0    3652805.242   1905302.992  -5528200.779
10 0 59707  60822.000000  0    4360461.730   2004683.004  -4949498.506
10 0 59707  60942.000000  0    4993675.221   2057493.722  -4284174.214
10 0 59707  61062.000000  0    5540538.188   2064185.957  -3543792.179
10 0 59707  61182.000000  0    5990639.208   2026206.683  -2741257.481
10 0 59707  61302.000000  0    6335272.415   1945950.401  -1890597.236
10 0 59707  61422.000000  0    6567617.447   1826690.266  -1006716.098
10 0 59707  61542.000000  0    6682884.639   1672489.445   -105132.714
10 0 59707  61662.000000  0    6678420.888   1488094.837    798299.470
10 0 59707  61782.000000  0    6553772.303   1278816.706   1687677.309
10 0 59707  61902.000000  0    6310705.976   1050396.389   2547336.910
10 0 59707  62022.000000  0    5953184.005    808864.750   3362138.792
10 0 59707  62142.000000  0    5487294.259    560396.560   4117741.623
10 0 59707  62262.000000  0    4921137.330    311163.644   4800858.624
10 0 59707  62382.000000  0    4264677.219     67191.839   5399492.149
10 0 59707  62502.000000  0    3529555.388   -165777.291   5903143.945
10 0 59707  62622.000000  0    2728874.409   -382414.071   6302993.862
10 0 59707  62742.000000  0    1876958.383   -577916.178   6592048.329
10 0 59707  62862.000000  0     989092.722   -748110.536   6765257.624
10 0 59707  62982.000000  0      81246.435   -889539.577   6819599.149
10 0 59707  63102.000000  0    -830215.651   -999529.740   6754125.556
10 0 59707  63222.000000  0   -1728826.790  -1076241.919   6569979.437
10 0 59707  63342.000000  0   -2598314.154  -1118702.044   6270373.911
10 0 59707  63462.000000  0   -3422891.904  -1126811.675   5860540.968
10 0 59707  63582.000000  0   -4187550.383  -1101339.246   5347647.572
10 0 59707  63702.000000  0   -4878334.960  -1043892.574   4740676.687
10 0 59707  63822.000000  0   -5482608.229   -956871.569   4050274.749
10 0 59707  63942.000000  0   -5989289.506   -843402.435   3288567.791
10 0 59707  64062.000000  0   -6389066.577   -707254.693   2468950.508
10 0 59707  64182.000000  0   -6674577.811   -552742.844   1605850.761
10 0 59707  64302.000000  0   -6840557.506   -384614.843    714470.274
10 0 59707  64422.000000  0   -6883938.554   -207930.558   -189490.849
10 0 59707  64542.000000  0   -6803911.323    -27932.610  -1090119.482
10 0 59707  64662.000000  0   -6601936.104    150086.883  -1971578.781
10 0 59707  64782.000000  0   -6281710.806    320919.471  -2818392.952
10 0 59707  64902.000000  0   -5849095.662    479570.890  -3615725.792
10 0 59707  65022.000000  0   -5311992.777    621385.859  -4349643.808
10 0 59707  65142.000000  0   -4680188.623    742163.273  -5007357.902
10 0 59707  65262.000000  0   -3965162.657    838259.350  -5577440.505
10 0 59707  65382.000000  0   -3179868.407    906676.584  -6050015.129
10 0 59707  65502.000000  0   -2338491.375    945136.263  -6416916.049
10 0 59707  65622.000000  0   -1456190.333    952134.628  -6671817.858
10 0 59707  65742.000000  0    -548824.305    926981.804  -6810333.629
10 0 59707  65862.000000  0     367327.445    869822.027  -6830080.702
10 0 59707  65982.000000  0    1275849.081    781635.621  -6730718.277
10 0 59707  66102.000000  0    2160476.477    664222.439  -6513954.794
10 0 59707  66222.000000  0    3005382.541    520167.154  -6183521.295
10 0 59707  66342.000000  0    3795456.325    352787.153  -5745113.518
10 0 59707  66462.000000  0    4516570.820    166062.326  -5206303.007
10 0 59707  66582.000000  0    5155837.526    -35450.520  -4576418.433
10 0 59707  66702.000000  0    5701843.827   -246718.304  -3866394.942
10 0 59707  66822.000000  0    6144865.583   -462345.517  -3088593.290
10 0 59707  66942.000000  0    6477051.963   -676699.192  -2256592.033
10 0 59707  67062.000000  0    6692577.914   -884042.248  -1384953.477
10 0 59707  67182.000000  0    6787758.284  -1078671.489   -488967.714
10 0 59707  67302.000000  0    6761120.832  -1255057.453    415619.496
10 0 59707  67422.000000  0    6613435.910  -1407982.489   1312890.609
10 0 59707  67542.000000  0    6347700.497  -1532673.855   2187044.786
10 0 59707  67662.000000  0    5969077.595  -1624927.512   3022685.974
10 0 59707  67782.000000  0    5484790.746  -1681219.046   3805101.871
10 0 59707  67902.000000  0    4903978.545  -1698800.619   4520528.114
10 0 59707  68022.000000  0    4237512.918  -1675779.843   5156392.455
10 0 59707  68142.000000  0    3497786.917  -1611179.005   5701535.528
10 0 59707  68262.000000  0    2698474.906  -1504974.641   6146404.320
10 0 59707  68382.000000  0    1854272.579  -1358116.168   6483213.626
10 0 59707  68502.000000  0     980622.203  -1172523.799   6706076.847
10 0 59707  68622.000000  0      93426.755   -951064.614   6811103.165
10 0 59707  68742.000000  0    -791240.208   -697507.842   6796460.025
10 0 59707  68862.000000  0   -1657424.387   -416460.767   6662402.332
10 0 59707  68982.000000  0   -2489576.923   -113285.314   6411268.248
10 0 59707  69102.000000  0   -3272832.615    206003.259   6047441.837
10 0 59707  69222.000000  0   -3993277.108    534853.845   5577282.287
10 0 59707  69342.000000  0   -4638198.611    866311.208   5009018.818
10 0 59707  69462.000000  0   -5196318.791   1193160.058   4352612.709
10 0 59707  69582.000000  0   -5657998.527   1508078.860   3619586.785
10 0 59707  69702.000000  0   -6015412.836   1803799.719   2822825.592
10 0 59707  69822.000000  0   -6262692.511   2073271.045   1976349.295
10 0 59707  69942.000000  0   -6396028.999   2309819.163   1095064.385
10 0 59707  70062.000000  0   -6413738.437   2507305.278    194494.524
10 0 59707  70182.000000  0   -6316282.014   2660272.473   -709501.290
10 0 59707  70302.000000  0   -6106243.173   2764079.394  -1601017.011
10 0 59707  70422.000000  0   -5788262.291   2815017.843  -2464387.935
10 0 59707  70542.000000  0   -5368929.443   2810410.882  -3284473.902
10 0 59707  70662.000000  0   -4856639.005   2748688.074  -4046928.671
10 0 59707  70782.000000  0   -4261411.565   2629437.565  -4738450.867
10 0 59707  70902.000000  0   -3594687.500   2453433.667  -5347011.646
10 0 59707  71022.000000  0   -2869098.816   2222640.526  -5862055.155
10 0 59707  71142.000000  0   -2098225.253   1940192.348  -6274671.919
10 0 59707  71262.000000  0   -1296336.470   1610349.767  -6577742.236
10 0 59707  71382.000000  0    -478128.831   1238434.156  -6766046.624
10 0 59707  71502.000000  0     341539.521    830741.447  -6836345.866
10 0 59707  71622.000000  0    1147911.137    394437.544  -6787431.181
10 0 59707  71742.000000  0    1926589.921    -62565.130  -6620144.311
10 0 59707  71862.000000  0    2663792.270   -531747.682  -6337363.419
10 0 59707  71982.000000  0    3346586.922  -1004139.046  -5943959.512
10 0 59707  72102.000000  0    3963119.650  -1470482.517  -5446720.203
10 0 59707  72222.000000  0    4502820.503  -1921412.941  -4854244.666
10 0 59707  72342.000000  0    4956590.394  -2347642.677  -4176806.034
10 0 59707  72462.000000  0    5316961.745  -2740151.091  -3426183.523
10 0 59707  72582.000000  0    5578231.117  -3090374.252  -2615465.864
10 0 59707  72702.000000  0    5736559.602  -3390390.617  -1758827.222
10 0 59707  72822.000000  0    5790037.323  -3633098.033   -871280.411
10 0 59707  72942.000000  0    5738710.935  -3812378.340     31588.805
10 0 59707  73062.000000  0    5584571.746  -3923244.215    933901.156
10 0 59707  73182.000000  0    5331504.803  -3961965.704   1819771.472
10 0 59707  73302.000000  0    4985198.297  -3926170.140   2673598.474
10 0 59707  73422.000000  0    4553016.579  -3814913.762   3480347.062
10 0 59707  73542.000000  0    4043841.898  -3628724.362   4225819.023
10 0 59707  73662.000000  0    3467887.785  -3369614.482   4896907.447
10 0 59707  73782.000000  0    2836486.990  -3041063.148   5481828.379
10 0 59707  73902.000000  0    2161863.001  -2647967.554   5970325.501
10 0 59707  74022.000000  0    1456887.976  -2196566.818   6353845.673
10 0 59707  74142.000000  0     734833.489  -1694339.815   6625682.501
10 0 59707  74262.000000  0       9118.799  -1149878.479   6781087.550
10 0 59707  74382.000000  0    -706938.608   -572738.931   6817347.904
10 0 59707  74502.000000  0   -1400366.275     26726.690   6733829.905
10 0 59707  74622.000000  0   -2058770.769    637555.463   6531989.620
10 0 59707  74742.000000  0   -2670558.587   1248373.384   6215349.223
10 0 59707  74862.000000  0   -3225140.944   1847606.114   5789439.597
10 0 59707  74982.000000  0   -3713119.584   2423697.951   5261710.262
10 0 59707  75102.000000  0   -4126450.800   2965336.156   4641405.495
10 0 59707  75222.000000  0   -4458583.602   3461675.393   3939407.560
10 0 59707  75342.000000  0   -4704569.880   3902557.575   3168049.297
10 0 59707  75462.000000  0   -4861142.627   4278723.053   2340898.489
99
